$$SOE
2460721.500000000, A.D. 2025-Feb-15 00:00:00.0000, 2.092261302028702E+08, -2.299762350305424E+08, -4.413794127384058E+07,
2460728.500000000, A.D. 2025-Feb-22 00:00:00.0000, 2.178341457094483E+08, -2.200108532829900E+08, -4.404056320645569E+07,
2460735.500000000, A.D. 2025-Mar-01 00:00:00.0000, 2.260964219041706E+08, -2.096963823506901E+08, -4.387328963206905E+07,
2460742.500000000, A.D. 2025-Mar-08 00:00:00.0000, 2.339955220576313E+08, -1.990451762907626E+08, -4.363554654465055E+07,
2460749.500000000, A.D. 2025-Mar-15 00:00:00.0000, 2.415144244138634E+08, -1.880706484873672E+08, -4.332690695775393E+07,
2460756.500000000, A.D. 2025-Mar-22 00:00:00.0000, 2.486366009362222E+08, -1.767872633335598E+08, -4.294709819997415E+07,
2460763.500000000, A.D. 2025-Mar-29 00:00:00.0000, 2.553460987693335E+08, -1.652105228660168E+08, -4.249600893817598E+07,
2460770.500000000, A.D. 2025-Apr-05 00:00:00.0000, 2.616276239854447E+08, -1.533569448701102E+08, -4.197369559051558E+07,
2460777.500000000, A.D. 2025-Apr-12 00:00:00.0000, 2.674666248654618E+08, -1.412440320987958E+08, -4.138038783499365E+07,
2460784.500000000, A.D. 2025-Apr-19 00:00:00.0000, 2.728493736451365E+08, -1.288902333351033E+08, -4.071649316319045E+07,
2460791.500000000, A.D. 2025-Apr-26 00:00:00.0000, 2.777630460716006E+08, -1.163148964613118E+08, -3.998260042192174E+07,
2460798.500000000, A.D. 2025-May-03 00:00:00.0000, 2.821957979302989E+08, -1.035382135972326E+08, -3.917948226205830E+07,
2460805.500000000, A.D. 2025-May-10 00:00:00.0000, 2.861368376087224E+08, -9.058115850959209E+07, -3.830809641860934E+07,
2460812.500000000, A.D. 2025-May-17 00:00:00.0000, 2.895764937820573E+08, -7.746541667814612E+07, -3.736958576520289E+07,
2460819.500000000, A.D. 2025-May-24 00:00:00.0000, 2.925062774706432E+08, -6.421330855152641E+07, -3.636527711568266E+07,
2460826.500000000, A.D. 2025-May-31 00:00:00.0000, 2.949189380106985E+08, -5.084770628502657E+07, -3.529667875519353E+07,
2460833.500000000, A.D. 2025-Jun-07 00:00:00.0000, 2.968085117438902E+08, -3.739194347590831E+07, -3.416547655531539E+07,
2460840.500000000, A.D. 2025-Jun-14 00:00:00.0000, 2.981703603739115E+08, -2.386971940462308E+07, -3.297352852360946E+07,
2460847.500000000, A.D. 2025-Jun-21 00:00:00.0000, 2.990011996207253E+08, -1.030500199803600E+07, -3.172285819953139E+07,
2460854.500000000, A.D. 2025-Jun-28 00:00:00.0000, 2.992991208334475E+08, 3.278071233657112E+06, -3.041564709160214E+07,
2460861.500000000, A.D. 2025-Jul-05 00:00:00.0000, 2.990636037252019E+08, 1.685529536786087E+07, -2.905422591335506E+07,
2460868.500000000, A.D. 2025-Jul-12 00:00:00.0000, 2.982955188696863E+08, 3.040250142453447E+07, -2.764106466647805E+07,
2460875.500000000, A.D. 2025-Jul-19 00:00:00.0000, 2.969971201248410E+08, 4.389565919390596E+07, -2.617876174311104E+07,
2460882.500000000, A.D. 2025-Jul-26 00:00:00.0000, 2.951720273118171E+08, 5.731097835757770E+07, -2.467003219214983E+07,
2460889.500000000, A.D. 2025-Aug-02 00:00:00.0000, 2.928251994789929E+08, 7.062500684719515E+07, -2.311769528712843E+07,
2460896.500000000, A.D. 2025-Aug-09 00:00:00.0000, 2.899628991920028E+08, 8.381472541667314E+07, -2.152466154372804E+07,
2460903.500000000, A.D. 2025-Aug-16 00:00:00.0000, 2.865926484931403E+08, 9.685763743297601E+07, -1.989391935193660E+07,
2460910.500000000, A.D. 2025-Aug-23 00:00:00.0000, 2.827231775135682E+08, 1.097318530535047E+08, -1.822852140387845E+07,
2460917.500000000, A.D. 2025-Aug-30 00:00:00.0000, 2.783643668436946E+08, 1.224161677517855E+08, -1.653157104192800E+07,
2460924.500000000, A.D. 2025-Sep-06 00:00:00.0000, 2.735271830785303E+08, 1.348901355654548E+08, -1.480620846123072E+07,
2460931.500000000, A.D. 2025-Sep-13 00:00:00.0000, 2.682236067715509E+08, 1.471341341005022E+08, -1.305559695584991E+07,
2460938.500000000, A.D. 2025-Sep-20 00:00:00.0000, 2.624665570174201E+08, 1.591294192858587E+08, -1.128290977531540E+07,
2460945.500000000, A.D. 2025-Sep-27 00:00:00.0000, 2.562698146668164E+08, 1.708581727571900E+08, -9.491317553985991E+06,
2460952.500000000, A.D. 2025-Oct-04 00:00:00.0000, 2.496479430979923E+08, 1.823035423131824E+08, -7.683976190289363E+06,
2460959.500000000, A.D. 2025-Oct-11 00:00:00.0000, 2.426162070969743E+08, 1.934496745285071E+08, -5.864015310889177E+06,
2460966.500000000, A.D. 2025-Oct-18 00:00:00.0000, 2.351904910182720E+08, 2.042817393871038E+08, -4.034527445418090E+06,
2460973.500000000, A.D. 2025-Oct-25 00:00:00.0000, 2.273872172005408E+08, 2.147859471842905E+08, -2.198557985252544E+06,
2460980.500000000, A.D. 2025-Nov-01 00:00:00.0000, 2.192232654457799E+08, 2.249495580370318E+08, -3.590959747835994E+05,
2460987.500000000, A.D. 2025-Nov-08 00:00:00.0000, 2.107158942898010E+08, 2.347608843678156E+08, 1.480934227731764E+06,
2460994.500000000, A.D. 2025-Nov-15 00:00:00.0000, 2.018826648221094E+08, 2.442092867617383E+08, 3.318680383676067E+06,
2461001.500000000, A.D. 2025-Nov-22 00:00:00.0000, 1.927413679841830E+08, 2.532851639259226E+08, 5.151368877572745E+06,
2461008.500000000, A.D. 2025-Nov-29 00:00:00.0000, 1.833099556372248E+08, 2.619799384292587E+08, 6.976310402795106E+06,
2461015.500000000, A.D. 2025-Dec-06 00:00:00.0000, 1.736064734761293E+08, 2.702860386457495E+08, 8.790905043422297E+06,
2461022.500000000, A.D. 2025-Dec-13 00:00:00.0000, 1.636489964981040E+08, 2.781968741159354E+08, 1.059264646479078E+07,
2461029.500000000, A.D. 2025-Dec-20 00:00:00.0000, 1.534555707389160E+08, 2.857068059360171E+08, 1.237912501136431E+07,
2461036.500000000, A.D. 2025-Dec-27 00:00:00.0000, 1.430441603459137E+08, 2.928111153210922E+08, 1.414803006339753E+07,
2461043.500000000, A.D. 2026-Jan-03 00:00:00.0000, 1.324325985962906E+08, 2.995059702611642E+08, 1.589715178283833E+07,
2461050.500000000, A.D. 2026-Jan-10 00:00:00.0000, 1.216385429789518E+08, 3.057883901026058E+08, 1.762438223336659E+07,
2461057.500000000, A.D. 2026-Jan-17 00:00:00.0000, 1.106794345288467E+08, 3.116562084447407E+08, 1.932771589816089E+07,
2461064.500000000, A.D. 2026-Jan-24 00:00:00.0000, 9.957246140229289E+07, 3.171080348213283E+08, 2.100524964349104E+07,
2461071.500000000, A.D. 2026-Jan-31 00:00:00.0000, 8.833452658900292E+07, 3.221432155702631E+08, 2.265518217892702E+07,
2461078.500000000, A.D. 2026-Feb-07 00:00:00.0000, 7.698221966324733E+07, 3.267617942070381E+08, 2.427581305679713E+07,
2461085.500000000, A.D. 2026-Feb-14 00:00:00.0000, 6.553179264305628E+07, 3.309644716215373E+08, 2.586554123821442E+07,
2461092.500000000, A.D. 2026-Feb-21 00:00:00.0000, 5.399914014222001E+07, 3.347525669738963E+08, 2.742286328746957E+07,
2461099.500000000, A.D. 2026-Feb-28 00:00:00.0000, 4.239978251749891E+07, 3.381279807048790E+08, 2.894637143626152E+07,
2461106.500000000, A.D. 2026-Mar-07 00:00:00.0000, 3.074884973080003E+07, 3.410931579259833E+08, 3.043475159118921E+07,
2461113.500000000, A.D. 2026-Mar-14 00:00:00.0000, 1.906106846502498E+07, 3.436510500398972E+08, 3.188678088158034E+07,
2461120.500000000, A.D. 2026-Mar-21 00:00:00.0000, 7.350754044950243E+06, 3.458050776570542E+08, 3.330132486151634E+07,
2461127.500000000, A.D. 2026-Mar-28 00:00:00.0000, -4.368195068997189E+06, 3.475590959667239E+08, 3.467733467047141E+07,
2461134.500000000, A.D. 2026-Apr-04 00:00:00.0000, -1.608230104038891E+07, 3.489173616948406E+08, 3.601384416192260E+07,
2461141.500000000, A.D. 2026-Apr-11 00:00:00.0000, -2.777850861184692E+07, 3.498845013649191E+08, 3.730996697558944E+07,
2461148.500000000, A.D. 2026-Apr-18 00:00:00.0000, -3.944418530113730E+07, 3.504654809096617E+08, 3.856489356498617E+07,
2461155.500000000, A.D. 2026-Apr-25 00:00:00.0000, -5.106711998614746E+07, 3.506655766795897E+08, 3.977788820032044E+07,
2461162.500000000, A.D. 2026-May-02 00:00:00.0000, -6.263552003245131E+07, 3.504903478296603E+08, 4.094828596087690E+07,
2461169.500000000, A.D. 2026-May-09 00:00:00.0000, -7.413800701650068E+07, 3.499456100125743E+08, 4.207548971687171E+07,
2461176.500000000, A.D. 2026-May-16 00:00:00.0000, -8.556361083708715E+07, 3.490374105041464E+08, 4.315896709321076E+07,
2461183.500000000, A.D. 2026-May-23 00:00:00.0000, -9.690176232285811E+07, 3.477720057679797E+08, 4.419824750933792E+07,
2461190.500000000, A.D. 2026-May-30 00:00:00.0000, -1.081422865564872E+08, 3.461558417610568E+08, 4.519291952577934E+07,
2461197.500000000, A.D. 2026-Jun-06 00:00:00.0000, -1.192753973551224E+08, 3.441955336729685E+08, 4.614262826887293E+07,
2461204.500000000, A.D. 2026-Jun-13 00:00:00.0000, -1.302916893580290E+08, 3.418978452492473E+08, 4.704707262087539E+07,
2461211.500000000, A.D. 2026-Jun-20 00:00:00.0000, -1.411821283329844E+08, 3.392696705813597E+08, 4.790600246724868E+07,
2461218.500000000, A.D. 2026-Jun-27 00:00:00.0000, -1.519380414944696E+08, 3.363180179752179E+08, 4.871921613355592E+07,
2461225.500000000, A.D. 2026-Jul-04 00:00:00.0000, -1.625511079197291E+08, 3.330499950670726E+08, 4.948655795128985E+07,
2461232.500000000, A.D. 2026-Jul-11 00:00:00.0000, -1.730133488879133E+08, 3.294727949978677E+08, 5.020791592048730E+07,
2461239.500000000, A.D. 2026-Jul-18 00:00:00.0000, -1.833171181205639E+08, 3.255936836154862E+08, 5.088321946396871E+07,
2461246.500000000, A.D. 2026-Jul-25 00:00:00.0000, -1.934550919618716E+08, 3.214199876517338E+08, 5.151243727170871E+07,
2461253.500000000, A.D. 2026-Aug-01 00:00:00.0000, -2.034202595059562E+08, 3.169590837705543E+08, 5.209557522685447E+07,
2461260.500000000, A.D. 2026-Aug-08 00:00:00.0000, -2.132059125047682E+08, 3.122183883968790E+08, 5.263267439002848E+07,
2461267.500000000, A.D. 2026-Aug-15 00:00:00.0000, -2.228056346841536E+08, 3.072053487227002E+08, 5.312380903947674E+07,
2461274.500000000, A.D. 2026-Aug-22 00:00:00.0000, -2.322132912674706E+08, 3.019274360602100E+08, 5.356908493535885E+07,
2461281.500000000, A.D. 2026-Aug-29 00:00:00.0000, -2.414230210288981E+08, 2.963921401223856E+08, 5.396863790462552E+07,
2461288.500000000, A.D. 2026-Sep-05 00:00:00.0000, -2.504292287657234E+08, 2.906069613147707E+08, 5.432263231387502E+07,
$$EOE